1 25907U 99049A 13130.15888270 -.00000065 00000-0 26093-3 0 6942 25907 051.9960 032.8455 0001911 029.4868 130.5755 11.93063529625032